0 SL-12 R/B(2)
1 18718U 87109D   13281.69164485 -.00000367  00000-0  10000-3 0  8572
2 18718 014.4247 009.7856 0066695 147.5837 212.8312 01.00836465 85376
0 SL-12 R/B(2)
1 18718U 87109D   13282.68334605  .00000000  00000-0  10000-3 0  8590
2 18718 014.4254 009.7744 0066812 147.7813 212.6348 01.00831554 85389
0 SL-12 R/B(2)
1 18718U 87109D   13288.63337300 -.00000353  00000-0  10000-3 0  8598
2 18718 014.4290 009.7119 0066739 147.9720 212.4194 01.00832854 85440
0 SL-12 R/B(2)
1 18718U 87109D   13294.58364955 -.00000281  00000-0  10000-3 0  8607
2 18718 014.4330 009.6483 0067039 147.6209 212.7326 01.00829072 85506
0 SL-12 R/B(2)
1 18718U 87109D   13295.57548257 -.00000265  00000-0  10000-3 0  8619
2 18718 014.4336 009.6385 0067037 147.8874 212.5088 01.00828827 85512
